seq,name,email,phone,street,zip,city,state
1,Nora Carpenter,omo@do.lc,(502) 884-3806,Ehebo Drive,89282,Tusupih,NV
2,Eugene Lowe,nid@nuvhup.ms,(264) 351-9822,Kodut Center,69978,Sumbana,WI
3,Mable Spencer,le@rowpowew.nu,(811) 896-7334,Puoh Drive,71077,Kufvedpub,NY
4,Alex Lloyd,veku@lizhad.id,(715) 511-9753,Gummoj Circle,91751,Caipciv,MN
5,Jeremiah McCoy,gipnazum@najga.fo,(745) 799-7430,Baknep Lane,06045,Citancu,MD
6,Sally Ross,obze@magan.ga,(564) 392-5160,Kefuno Square,20206,Kolsavohe,CO
7,Ina Watkins,lucgi@nuhah.et,(232) 582-3945,Divab Street,30687,Onusawfit,GA
8,Jesse Washington,nemuz@ma.ni,(611) 783-5838,Doemo Drive,65224,Sudiwu,HI
9,Ella White,gujiju@wupcezlum.aq,(718) 855-6316,Nale Pike,57051,Lateitu,OH
10,Elva Bass,ejeto@ovwi.tg,(311) 545-3401,Dowa Point,76351,Vijcewaha,IA
11,Jeremy Caldwell,bog@dis.np,(700) 777-2078,Ovti Boulevard,67104,Tipsine,RI
12,Ann Stewart,liudka@rana.gu,(639) 303-7663,Gurpu Way,14525,Damfasdas,OK
13,Travis Morgan,nivmuz@muovare.cm,(367) 620-3331,Tajo Mill,10540,Ferocriw,WI
14,Annie Webster,ecivub@cor.ma,(202) 429-2368,Ozwok Parkway,50762,Olobeeba,FL
15,Juan Robbins,suv@gi.ca,(823) 555-2824,Zoclus Ridge,21196,Suropid,GA
16,Hallie Smith,rut@zan.pe,(872) 722-5831,Cedjej Point,60818,Hurilzu,IN
17,William Dawson,rat@suw.mk,(309) 751-6750,Jajog Place,51744,Rithumzo,OK
18,Nina Walton,baf@kofsaiwe.nu,(963) 877-4975,Tofit Terrace,70433,Zofapaba,WI
19,Garrett Jenkins,sem@povibu.bt,(556) 739-9348,Towhic Pike,17587,Raokvew,AK
20,Juan Wells,hewip@ukage.sa,(738) 332-9009,Milruw Way,16482,Eboutowan,AZ
21,Lucas Hamilton,ureboho@wihliz.pn,(342) 907-6636,Kefe Park,04057,Koofeami,MD
22,Estella McCarthy,rihog@cu.com,(212) 519-8400,Heam Road,50232,Benfivic,MS
23,Elijah Lyons,naog@ufme.eh,(973) 482-6507,Suguw Path,62829,Rabancim,CA
24,Charlie Rowe,bumija@le.td,(961) 550-8726,Vaato Square,24403,Wuevcov,MN
25,Hattie Hunter,vuzpe@degcov.km,(668) 406-7150,Pitoj Road,06065,Tesaceg,CA
26,Ella Olson,pum@egti.org,(275) 441-2728,Icpi Plaza,43650,Sidikebe,TN
27,Mable Morton,ral@jolnom.io,(369) 946-8377,Ipar View,57138,Bidjava,GA
28,Harriet Banks,culo@hazuvo.ad,(982) 896-9717,Godnok Ridge,73750,Zofehuze,MI
29,Lucas Gibbs,cogcup@ruhdinud.pn,(522) 214-1522,Vuzmu Grove,01074,Fadragnu,MS
30,Isaac Reid,joirdu@wadotob.aq,(533) 849-8287,Fasli Plaza,43533,Egtogis,WV
31,Bessie Rogers,uto@kak.aq,(525) 392-1588,Ewmiz Highway,83801,Rucocof,VT
32,Louisa Frazier,tilas@cuba.np,(360) 647-6548,Lazoro Ridge,62728,Tecuwobol,GA
33,Melvin Allen,cos@igfiz.al,(240) 685-5411,Jikzik Plaza,47270,Wurmalez,PA
34,Keith Jenkins,okaru@duda.ck,(823) 235-7020,Toan Ridge,70592,Gurojra,PA
35,Jordan Padilla,fadmo@ber.io,(612) 796-2549,Kuhmen Circle,96988,Fikofur,PA
36,Carrie Pittman,ohife@busboite.lk,(633) 825-2278,Lusroc Heights,19487,Huwufva,MT
37,Lida Briggs,suvpo@ji.mw,(388) 834-6291,Mahi View,54470,Zapakzi,MA
38,Shane Spencer,nawfi@ru.lt,(243) 568-3866,Useca Manor,23397,Mukowefaf,NH
39,Nannie Hicks,titbed@ijuizzi.fk,(914) 564-1847,Siseci Park,51224,Gufgokro,LA
40,Harold Estrada,keciril@zuhsor.gy,(940) 371-7826,Lamvov Place,99343,Kisugej,SD
41,Mittie Rios,itiibokud@loz.tr,(982) 990-9893,Wupag Lane,34602,Octuba,OR
42,Jerry Wade,ruh@mogokib.hm,(258) 869-6827,Udka Mill,22867,Suwtira,LA
43,Blanche Griffin,suskizka@rirgo.dz,(710) 333-8374,Wacig Plaza,98363,Couwsiz,WI
44,Glen Green,jipagfa@aso.at,(915) 422-3448,Riza View,96603,Poozoadu,VA
45,Francis Anderson,has@tikgat.ru,(921) 648-9398,Posi Path,85513,Izohatub,MN
46,Alexander Lawrence,efuobepof@vuscewgi.im,(646) 224-9891,Sunput Circle,08620,Natfoafo,MA
47,Dorothy Phelps,kef@pimcot.vc,(606) 910-5848,Ojdun Drive,30215,Jovesoji,OR
48,Madge Todd,ohezag@caeh.va,(889) 692-6343,Jolu Avenue,16981,Cekheci,CO
49,Clifford Drake,keupafu@sitninde.jp,(714) 689-8081,Komu Boulevard,55669,Bowfebi,NJ
50,Lester Butler,wercu@cico.ec,(474) 689-4892,Kobgid Extension,64960,Sefefa,CO
51,Clifford Clark,ahugoos@repez.zm,(777) 889-8809,Bakziv Square,12947,Urelivpe,NC
52,Ruth Tucker,ribe@mi.gl,(429) 641-3586,Timmo Manor,46508,Ohizajlun,MD
53,Henrietta Hale,ov@ginsi.io,(446) 861-7689,Cobi Glen,32587,Cufritut,AL
54,Noah Coleman,fel@wem.bg,(879) 216-9768,Tosi Junction,63011,Zaigufu,VA
55,Johanna Cole,zep@otcuv.bi,(523) 668-6511,Evejo Glen,83766,Oheohaabo,MO
56,Hettie Roberson,gemu@suhiz.mo,(776) 476-2013,Poega Heights,70672,Ucimembe,UT
57,Evelyn Duncan,gadliwaco@bahhobu.gi,(479) 425-5696,Ikud Pike,92370,Iguepoju,ID
58,Linnie Saunders,nejodi@elbu.uk,(307) 674-1232,Sesta View,61556,Tucotwo,DC
59,Nancy Lloyd,jun@ega.hk,(457) 627-7025,Uhemu Plaza,08105,Nodnofzes,NM
60,Douglas Riley,zenfi@lod.sj,(314) 594-5708,Bokob Court,79162,Epsowor,NM
61,Myra Roy,gatceddar@erwiava.vi,(741) 788-5037,Zolas Way,71174,Funovej,NC
62,Verna Ball,zonfu@eswamzef.an,(565) 628-9500,Wuvbuk Point,24086,Tejigin,ID
63,Lina Dunn,rojawe@asijuw.sl,(452) 425-1881,Bevap Mill,21665,Lappezeb,MO
64,Sarah Gregory,napwasak@gokpo.mr,(950) 792-1479,Jivod Heights,33248,Tepdeig,WV
65,Leah Carlson,comwiti@lapuc.mr,(502) 743-1098,Wapbu Center,83953,Bocospah,MA
66,Lucas Salazar,dubjuhjic@ta.er,(501) 801-3854,Irowe Point,86137,Niistij,FL
67,Cameron Watts,fomem@pinhe.kz,(474) 709-6440,Lavzom Terrace,45743,Ibvoloj,CO
68,Clyde Logan,fat@riknu.nf,(575) 405-9119,Nuta Terrace,02914,Horgizwov,DE
69,Clara Grant,kopoz@kucruad.sa,(342) 777-3826,Delbop Grove,24645,Kevofal,SD
70,John Farmer,ignodo@wecetbej.in,(323) 234-3678,Ejafad Extension,09965,Tikuspi,WI
71,Bess Cummings,lipese@hotonuh.nc,(319) 633-9390,Jiwati Ridge,91691,Ahidiweb,NC
72,Theresa Brady,rubil@laaz.edu,(668) 978-8407,Wini Pike,31815,Kawocvu,SC
73,Austin Snyder,eg@fasozub.tj,(543) 789-7271,Tofa Road,25956,Gevagfe,MA
74,Chester Griffin,udagda@ren.mo,(675) 645-2780,Tiso Avenue,28833,Okurugez,WA
75,Amanda Barton,josi@osoniv.au,(306) 996-9672,Havet Street,61993,Kaduacu,ID
76,Bobby Holland,ze@nagegir.lt,(965) 700-5552,Idowe Street,79332,Sotbejnup,IA
77,Olivia Hammond,borafseb@lenbirod.gi,(811) 722-1705,Kavek Avenue,63032,Nevbobji,PA
78,George Simpson,valob@kiwlep.cg,(273) 292-2060,Vilnip Road,42087,Ugposmom,IA
79,Theresa Moody,mavo@vuf.ad,(538) 687-9533,Hocne Point,43041,Harheniro,TX
80,Sophie Hunter,holapvuz@zoohiduh.tr,(956) 891-4774,Jipgid Loop,98543,Emejze,CT
81,Jorge Allison,esadonlir@wugpovop.sh,(541) 228-9699,Fivlo Boulevard,37294,Latotaha,MS
82,Lillie Miller,mumcep@gumka.tw,(562) 822-1241,Mobta Trail,51050,Cowagni,UT
83,Alexander Bell,ludvawvu@fu.tn,(506) 657-8250,Apofu Lane,35021,Iroobaw,OK
84,Georgia Hardy,jij@otadim.jm,(935) 261-9268,Pakud Circle,11687,Kofohtav,DE
85,Jeremiah Moran,pohcoh@nec.mr,(957) 559-5960,Kucgeh Pike,61036,Moeviunu,CT
86,Inez Harmon,negboti@dokogih.fo,(959) 550-1710,Sarku Boulevard,57758,Ozodurul,DC
87,Terry Pope,bo@fafouz.se,(589) 994-1264,Muzov Plaza,71317,Dikhiksem,NH
88,John Lindsey,gomfewe@keg.aw,(633) 407-4392,Gijwap Avenue,34235,Ezicardo,VT
89,Jerry Lawson,juaceoh@ihivu.hr,(478) 778-5483,Logo Street,11355,Bilfumvip,DC
90,Maggie Keller,faase@cazduj.tm,(563) 251-3753,Fivdu Way,78951,Votidgam,CA
91,Lulu Hughes,fevo@guitre.mx,(584) 713-7799,Ocewi Loop,52838,Dostiuga,FL
92,Addie Cannon,zeicuke@jezihpej.sy,(820) 716-4084,Aferi Pass,36948,Fulese,AL
93,Millie Curtis,ji@kafewiw.bp,(653) 460-3178,Hulela River,60486,Rofwowe,DC
94,Annie Reyes,zel@guol.ag,(666) 673-2273,Athus Boulevard,31478,Zubdahe,CT
95,Henrietta Moran,jiv@cedo.gy,(807) 327-2511,Ugman Manor,53472,Simokug,HI
96,Daisy Thornton,wa@lihew.zw,(662) 994-7544,Potnit Trail,91342,Salevja,HI
97,Luella Craig,dubesga@wumok.aq,(524) 935-5211,Mufipa Trail,20193,Jomjerbu,AR
98,Craig Summers,sochabsu@gochem.vg,(401) 391-4409,Jonzo Road,82371,Akeshuh,HI
99,Frances Sutton,bawkowju@izi.qa,(233) 737-1358,Judte Loop,25446,Dokasse,GA
100,Joel Harrington,ida@eneuli.sn,(346) 532-9597,Afcof Heights,12208,Neseoma,SD
